NORAD_CAT_ID,OBJECT_NAME,OBJECT_TYPE,EPOCH,MEAN_MOTION,ECCENTRICITY,INCLINATION,RA_OF_ASC_NODE,ARG_OF_PERICENTER,MEAN_ANOMALY,BSTAR,MEAN_MOTION_DOT,MEAN_MOTION_DDOT,TLE_LINE0,TLE_LINE1,TLE_LINE2,SEMIMAJOR_AXIS,PERIOD,APOGEE,PERIGEE,DECAYED
53967.0,STARLINK-4634,PAYLOAD,2022-10-20 12:00:00,15.73031901,0.0003012,53.2177,19.6685,289.2852,61.2765,-0.0095876,-0.01186429,0.0,0 STARLINK-4634,1 53967U 22125D   22293.50001157 -.01186429  00000-0 -95876-2 0  9999,2 53967  53.2177  19.6685 0003012 289.2852  61.2765 15.73031901  2676,6728.374,91.543,352.266,348.213,0.0
53967.0,STARLINK-4634,PAYLOAD,2022-10-20 14:00:01,15.72799785,0.0003633,53.2176,19.2564,288.6262,174.0866,-0.0093981,-0.01155585,0.0,0 STARLINK-4634,1 53967U 22125D   22293.58334491 -.01155585  00000-0 -93981-2 0  9991,2 53967  53.2176  19.2564 0003633 288.6262 174.0866 15.72799785  1308,6729.036,91.556,353.346,348.457,0.0
53967.0,STARLINK-4634,PAYLOAD,2022-10-20 22:00:00,15.71959478,0.0006142,53.2173,17.6076,272.6567,277.9883,-0.010005,-0.01184865,0.0,0 STARLINK-4634,1 53967U 22125D   22293.91667824 -.01184865  00000-0 -10005-1 0  9995,2 53967  53.2173  17.6076 0006142 272.6567 277.9883 15.71959478  1302,6731.434,91.605,357.434,349.165,0.0
53967.0,STARLINK-4634,PAYLOAD,2022-10-21 04:00:00,15.71312823,0.0001908,53.2173,16.3722,29.3351,136.5888,-0.010237,-0.01197366,0.0,0 STARLINK-4634,1 53967U 22125D   22294.16667824 -.01197366  00000-0 -10237-1 0  9990,2 53967  53.2173  16.3722 0001908  29.3351 136.5888 15.71312823  2784,6733.281,91.643,356.431,353.861,0.0
53967.0,STARLINK-4634,PAYLOAD,2022-10-21 12:00:00,15.70442508,0.000471,53.2172,14.7304,269.203,342.8591,-0.010401,-0.01157094,0.0,0 STARLINK-4634,1 53967U 22125D   22294.50001157 -.01157094  00000-0 -10401-1 0  9996,2 53967  53.2172  14.7304 0004710 269.2030 342.8591 15.70442508  2836,6735.768,91.694,360.806,354.461,0.0
53967.0,STARLINK-4634,PAYLOAD,2022-10-21 14:00:01,15.70236047,0.000404,53.2174,14.3201,270.7004,92.7306,-0.010594,-0.01186352,0.0,0 STARLINK-4634,1 53967U 22125D   22294.58334491 -.01186352  00000-0 -10594-1 0  9996,2 53967  53.2174  14.3201 0004040 270.7004  92.7306 15.70236047  1309,6736.359,91.706,360.945,355.50199999999984,0.0
53967.0,STARLINK-4634,PAYLOAD,2022-10-21 22:00:00,15.69417377,0.0001361,53.2176,12.6786,31.6116,56.65,-0.011545,-0.01241536,0.0,0 STARLINK-4634,1 53967U 22125D   22294.91667824 -.01241536  00000-0 -11545-1 0  9995,2 53967  53.2176  12.6786 0001361  31.6116  56.6500 15.69417377  1301,6738.701,91.754,361.483,359.649,0.0
53967.0,STARLINK-4634,PAYLOAD,2022-10-22 04:00:00,15.68740193,0.0001411,53.2174,11.4468,39.7395,21.4984,-0.011373,-0.0119415,0.0,0 STARLINK-4634,1 53967U 22125D   22295.16667824 -.01194150  00000-0 -11373-1 0  9991,2 53967  53.2174  11.4468 0001411  39.7395  21.4984 15.68740193  2948,6740.64,91.793,363.457,361.554,0.0
53967.0,STARLINK-4634,PAYLOAD,2022-10-22 14:00:01,15.67678882,0.0001313,53.2181,9.4034,61.3583,193.5175,-0.012023,-0.01206817,0.0,0 STARLINK-4634,1 53967U 22125D   22295.58334491 -.01206817  00000-0 -12023-1 0  9995,2 53967  53.2181   9.4034 0001313  61.3583 193.5175 15.67678882  1309,6743.682,91.856,366.4330000000001,364.662,0.0
53967.0,STARLINK-4634,PAYLOAD,2022-10-22 20:00:01,15.67074035,0.0001475,53.2174,8.1762,47.6409,178.6317,-0.0129129999999999,-0.0125852999999999,0.0,0 STARLINK-4634,1 53967U 22125D   22295.83334491 -.01258530  00000-0 -12913-1 0  9990,2 53967  53.2174   8.1762 0001475  47.6409 178.6317 15.67074035  3043,6745.417,91.891,368.277,366.287,0.0
53967.0,STARLINK-4634,PAYLOAD,2022-10-22 22:00:00,15.66814245,0.0001281,53.2176,7.7664,43.5054,293.1327,-0.012353,-0.01197756,0.0,0 STARLINK-4634,1 53967U 22125D   22295.91667824 -.01197756  00000-0 -12353-1 0  9998,2 53967  53.2176   7.7664 0001281  43.5054 293.1327 15.66814245  1302,6746.163000000001,91.906,368.892,367.164,0.0
53967.0,STARLINK-4634,PAYLOAD,2022-10-23 12:00:00,15.65354791,0.0001284,53.2179,4.9121,51.5913,335.6189,-0.0136969999999999,-0.01246202,0.0,0 STARLINK-4634,1 53967U 22125D   22296.50001157 -.01246202  00000-0 -13697-1 0  9998,2 53967  53.2179   4.9121 0001284  51.5913 335.6189 15.65354791  3144,6750.356,91.992,373.087,371.354,0.0
53967.0,STARLINK-4634,PAYLOAD,2022-10-23 14:00:01,15.65110525,0.0001445,53.2178,4.5046,55.5349,81.5201,-0.0133759999999999,-0.01209243,0.0,0 STARLINK-4634,1 53967U 22125D   22296.58334491 -.01209243  00000-0 -13376-1 0  9994,2 53967  53.2178   4.5046 0001445  55.5349  81.5201 15.65110525  1304,6751.058000000001,92.006,373.898,371.947,0.0
53967.0,STARLINK-4634,PAYLOAD,2022-10-23 22:00:00,15.6424913,0.000145,53.2176,2.8742,46.0276,169.6982,-0.01379,-0.0120485,0.0,0 STARLINK-4634,1 53967U 22125D   22296.91667824 -.01204850  00000-0 -13790-1 0  9999,2 53967  53.2176   2.8742 0001450  46.0276 169.6982 15.64249130  1304,6753.536,92.057,376.38,374.422,0.0
53967.0,STARLINK-4634,PAYLOAD,2022-10-24 04:00:01,15.63597315,0.0001527,53.2174,1.6524,47.4569,136.6625,-0.0139669999999999,-0.0119062999999999,0.0,0 STARLINK-4634,1 53967U 22125D   22297.16668981 -.01190630  00000-0 -13967-1 0  9998,2 53967  53.2174   1.6524 0001527  47.4569 136.6625 15.63597315  3256,6755.413000000001,92.095,378.309,376.246,0.0
53967.0,STARLINK-4634,PAYLOAD,2022-10-24 14:00:01,15.62530783,0.0001271,53.2179,359.6246,45.2205,324.7496,-0.014667,-0.01197781,0.0,0 STARLINK-4634,1 53967U 22125D   22297.58334491 -.01197781  00000-0 -14667-1 0  9992,2 53967  53.2179 359.6246 0001271  45.2205 324.7496 15.62530783  1302,6758.486999999999,92.158,381.211,379.49300000000005,0.0
53967.0,STARLINK-4634,PAYLOAD,2022-10-24 20:00:01,15.61884443,0.0001165,53.2175,358.4054,52.0796,284.6728,-0.014979,-0.01193086,0.0,0 STARLINK-4634,1 53967U 22125D   22297.83334491 -.01193086  00000-0 -14979-1 0  9990,2 53967  53.2175 358.4054 0001165  52.0796 284.6728 15.61884443  3358,6760.351,92.196,383.004,381.42800000000005,0.0
53967.0,STARLINK-4634,PAYLOAD,2022-10-24 22:00:00,15.61668008,0.0001498,53.2178,358.0,39.355,46.1959,-0.015056,-0.01189626,0.0,0 STARLINK-4634,1 53967U 22125D   22297.91667824 -.01189626  00000-0 -15056-1 0  9990,2 53967  53.2178 358.0000 0001498  39.3550  46.1959 15.61668008  1300,6760.976,92.209,383.853,381.828,0.0
53967.0,STARLINK-4634,PAYLOAD,2022-10-25 12:00:00,15.6016897,0.0001876999999999,53.2176,355.1667,33.4099,91.9208,-0.015962,-0.01189993,0.0,0 STARLINK-4634,1 53967U 22125D   22298.50001157 -.01189993  00000-0 -15962-1 0  9990,2 53967  53.2176 355.1667 0001877  33.4099  91.9208 15.60168970  3465,6765.306,92.298,388.44,385.901,0.0
53967.0,STARLINK-4634,PAYLOAD,2022-10-25 14:00:01,15.5996056,0.0001574,53.2179,354.7634,47.9574,185.6522,-0.016198,-0.01197007,0.0,0 STARLINK-4634,1 53967U 22125D   22298.58334491 -.01197007  00000-0 -16198-1 0  9995,2 53967  53.2179 354.7634 0001574  47.9574 185.6522 15.59960560  1303,6765.908,92.31,388.838,386.708,0.0
53967.0,STARLINK-4634,PAYLOAD,2022-10-25 22:00:01,15.59097764,0.0001386999999999,53.2175,353.1445,41.0212,265.1452,-0.016648,-0.01190771,0.0,0 STARLINK-4634,1 53967U 22125D   22298.91668981 -.01190771  00000-0 -16648-1 0  9997,2 53967  53.2175 353.1445 0001387  41.0212 265.1452 15.59097764  1301,6768.404,92.361,391.208,389.33,0.0
53967.0,STARLINK-4634,PAYLOAD,2022-10-26 04:00:00,15.5848846,0.0001411,53.2173,351.934,51.3223,218.448,-0.0176419999999999,-0.01228513,0.0,0 STARLINK-4634,1 53967U 22125D   22299.16667824 -.01228513  00000-0 -17642-1 0  9991,2 53967  53.2173 351.9340 0001411  51.3223 218.4480 15.58488460  3561,6770.168000000002,92.397,392.98800000000006,391.078,0.0
53967.0,STARLINK-4634,PAYLOAD,2022-10-26 14:00:01,15.57378731,0.0001657,53.2174,349.9199,35.0819,52.904,-0.017629,-0.01182224,0.0,0 STARLINK-4634,1 53967U 22125D   22299.58334491 -.01182224  00000-0 -17629-1 0  9991,2 53967  53.2174 349.9199 0001657  35.0819  52.9040 15.57378731  1304,6773.384,92.463,396.371,394.126,0.0
53967.0,STARLINK-4634,PAYLOAD,2022-10-26 22:00:00,15.56523477,0.0001488,53.2175,348.3079,47.2679,110.1153,-0.018247,-0.01184584,0.0,0 STARLINK-4634,1 53967U 22125D   22299.91667824 -.01184584  00000-0 -18247-1 0  9995,2 53967  53.2175 348.3079 0001488  47.2679 110.1153 15.56523477  1306,6775.865,92.514,398.73800000000006,396.721,0.0
53967.0,STARLINK-4634,PAYLOAD,2022-10-27 12:00:02,15.55023988,0.0001666999999999,53.2176,345.497,45.2214,141.1913,-0.019295,-0.01184578,0.0,0 STARLINK-4634,1 53967U 22125D   22300.50002315 -.01184578  00000-0 -19295-1 0  9998,2 53967  53.2176 345.4970 0001667  45.2214 141.1913 15.55023988  3779,6780.22,92.603,403.215,400.955,0.0
53967.0,STARLINK-4634,PAYLOAD,2022-10-27 14:00:01,15.54881348,0.0001438,53.2176,345.0971,36.6747,256.4358,-0.021025,-0.01294107,0.0,0 STARLINK-4634,1 53967U 22125D   22300.58335648 -.01294107  00000-0 -21025-1 0  9998,2 53967  53.2176 345.0971 0001438  36.6747 256.4358 15.54881348  1308,6780.635,92.612,403.475,401.525,0.0
53967.0,STARLINK-4634,PAYLOAD,2022-10-27 22:00:00,15.53951786,0.0001439,53.2175,343.4901,36.0333,323.3609,-0.020069,-0.01184226,0.0,0 STARLINK-4634,1 53967U 22125D   22300.91667824 -.01184226  00000-0 -20069-1 0  9996,2 53967  53.2175 343.4901 0001439  36.0333 323.3609 15.53951786  1304,6783.3380000000025,92.667,406.179,404.227,0.0
53967.0,STARLINK-4634,PAYLOAD,2022-10-28 04:00:00,15.53346849,0.0003105,53.2176,342.2893,280.1589,38.2719,-0.02156,-0.01258452,0.0,0 STARLINK-4634,1 53967U 22125D   22301.16667824 -.01258452  00000-0 -21560-1 0  9994,2 53967  53.2176 342.2893 0003105 280.1589  38.2719 15.53346849  3875,6785.099,92.703,409.071,404.858,0.0
53967.0,STARLINK-4634,PAYLOAD,2022-10-28 12:00:02,15.52476839,0.0001604,53.2179,340.6913,32.8331,350.17,-0.021823,-0.01235662,0.0,0 STARLINK-4634,1 53967U 22125D   22301.50002315 -.01235662  00000-0 -21823-1 0  9990,2 53967  53.2179 340.6913 0001604  32.8331 350.1700 15.52476839  3937,6787.634,92.755,410.588,408.41,0.0
